[{"OBJECT_NAME":"STARLINK-5697","OBJECT_ID":"2023-020W","EPOCH":"2026-03-09T22:00:01.999584","MEAN_MOTION":15.10960838,"ECCENTRICITY":8.729e-5,"INCLINATION":43.0005,"RA_OF_ASC_NODE":3.1004,"ARG_OF_PERICENTER":307.7189,"MEAN_ANOMALY":175.5763,"EPHEMERIS_TYPE":0,"CLASSIFICATION_TYPE":"U","NORAD_CAT_ID":55589,"ELEMENT_SET_NO":999,"REV_AT_EPOCH":573,"BSTAR":0.072755061,"MEAN_MOTION_DOT":0.01343581,"MEAN_MOTION_DDOT":0},{"OBJECT_NAME":"OBJECT BE","OBJECT_ID":"2025-313BE","EPOCH":"2026-03-09T16:43:59.380320","MEAN_MOTION":15.29801687,"ECCENTRICITY":0.00072083,"INCLINATION":97.3989,"RA_OF_ASC_NODE":145.3568,"ARG_OF_PERICENTER":335.3714,"MEAN_ANOMALY":24.7181,"EPHEMERIS_TYPE":0,"CLASSIFICATION_TYPE":"U","NORAD_CAT_ID":67482,"ELEMENT_SET_NO":999,"REV_AT_EPOCH":797,"BSTAR":0.0026504328,"MEAN_MOTION_DOT":0.00077178,"MEAN_MOTION_DDOT":0}]
